[
    {
        "Altitude(m)": 612513.8969033482,
        "Argument of Periapsis(deg)": 0.0,
        "Eccentricity": 0.0,
        "Inclination(deg)": 60.0,
        "Latitude(deg)": -28.135850963781994,
        "Longitude(deg)": 77.91313510699744,
        "Mean Anomaly(deg)": -147.27269999999996,
        "RAAN(deg)": 340.00000000000006,
        "Satellite Name": "Test1 1509",
        "Satellite Number": 1509,
        "Semi-Major Axis(m)": 6980739.136638005,
        "Time(s)": 0
    },
    {
        "Altitude(m)": 612708.2643948606,
        "Argument of Periapsis(deg)": 0.00010418945913296404,
        "Eccentricity": 0.0,
        "Inclination(deg)": 60.0,
        "Latitude(deg)": -28.64758989731162,
        "Longitude(deg)": 78.27036554064385,
        "Mean Anomaly(deg)": -146.65259385453817,
        "RAAN(deg)": 339.99957995086027,
        "Satellite Name": "Test1 1509",
        "Satellite Number": 1509,
        "Semi-Major Axis(m)": 6980739.136638005,
        "Time(s)": 10
    }
]